LEMUR-2-GREENBERG       
1 42837U 17042N   26068.46200528  .00019778  00000+0  72539-3 0  9997
2 42837  97.3781 249.8007 0009157   4.0119 356.1192 15.27971352473146
STARLINK-2732           
1 48646U 21044J   26068.51748391  .00001596  00000+0  65998-4 0  9990
2 48646  53.1602 114.6961 0001393  91.9963 268.1197 15.30198607263801
